{"type": "FeatureCollection", "features": [ {"type": "Feature", "properties": {"norad_id": 40664, "name": "SKY MEXICO-1", "group": "intelsat", "lat": 0.030523207058420827, "lon": 89.55857309614362, "alt_km": 35797.51880240774, "timestamp": "2025-12-02T06:27:52.688911+00:00", "meta": {"OBJECT_NAME": "SKY MEXICO-1", "OBJECT_ID": "2015-026B", "EPOCH": "2025-12-01T18:34:24.427776", "MEAN_MOTION": 1.00271024, "ECCENTRICITY": 0.0002656, "INCLINATION": 0.0174, "RA_OF_ASC_NODE": 325.3482, "ARG_OF_PERICENTER": 298.5137, "MEAN_ANOMALY": 6.8739, "EPHEMERIS_TYPE": 0, "CLASSIFICATION_TYPE": "U", "NORAD_CAT_ID": 40664, "ELEMENT_SET_NO": 999, "REV_AT_EPOCH": 3847, "BSTAR": 0, "MEAN_MOTION_DOT": -2.13e-06, "MEAN_MOTION_DDOT": 0}, "tle": {"line1": "1 40664U 15026B   25335.77389384 -.00000213  00000+0  00000+0 0  9996", "line2": "2 40664   0.0174 325.3482 0002656 298.5137   6.8739  1.00271024 38477"}}, "geometry": {"type": "Point", "coordinates": [89.55857309614362, 0.030523207058420827]}}, {"type": "Feature", "properties": {"norad_id": 40874, "name": "INTELSAT 34 (IS-34)", "group": "intelsat", "lat": 0.0050849648933092425, "lon": 112.81189289940528, "alt_km": 35784.21570184231, "timestamp": "2025-12-02T06:27:52.688923+00:00", "meta": {"OBJECT_NAME": "INTELSAT 34 (IS-34)", "OBJECT_ID": "2015-039A", "EPOCH": "2025-12-01T18:41:08.783232", "MEAN_MOTION": 1.00270951, "ECCENTRICITY": 8.49e-05, "INCLINATION": 0.0157, "RA_OF_ASC_NODE": 294.6924, "ARG_OF_PERICENTER": 230.7347, "MEAN_ANOMALY": 130.2562, "EPHEMERIS_TYPE": 0, "CLASSIFICATION_TYPE": "U", "NORAD_CAT_ID": 40874, "ELEMENT_SET_NO": 999, "REV_AT_EPOCH": 3764, "BSTAR": 0, "MEAN_MOTION_DOT": -2.64e-06, "MEAN_MOTION_DDOT": 0}, "tle": {"line1": "1 40874U 15039A   25335.77857388 -.00000264  00000+0  00000+0 0  9993", "line2": "2 40874   0.0157 294.6924 0000849 230.7347 130.2562  1.00270951 37645"}}, "geometry": {"type": "Point", "coordinates": [112.81189289940528, 0.0050849648933092425]}}, {"type": "Feature", "properties": {"norad_id": 41581, "name": "INTELSAT 31 (IS-31)", "group": "intelsat", "lat": 0.018047314202159544, "lon": 73.25141003188008, "alt_km": 35793.33586340807, "timestamp": "2025-12-02T06:27:52.688934+00:00", "meta": {"OBJECT_NAME": "INTELSAT 31 (IS-31)", "OBJECT_ID": "2016-035A", "EPOCH": "2025-12-01T19:25:31.492128", "MEAN_MOTION": 1.00269812, "ECCENTRICITY": 0.0001905, "INCLINATION": 0.0161, "RA_OF_ASC_NODE": 269.3023, "ARG_OF_PERICENTER": 309.7465, "MEAN_ANOMALY": 48.2052, "EPHEMERIS_TYPE": 0, "CLASSIFICATION_TYPE": "U", "NORAD_CAT_ID": 41581, "ELEMENT_SET_NO": 999, "REV_AT_EPOCH": 3470, "BSTAR": 0, "MEAN_MOTION_DOT": -1.29e-06, "MEAN_MOTION_DDOT": 0}, "tle": {"line1": "1 41581U 16035A   25335.80939227 -.00000129  00000+0  00000+0 0  9993", "line2": "2 41581   0.0161 269.3023 0001905 309.7465  48.2052  1.00269812 34707"}}, "geometry": {"type": "Point", "coordinates": [73.25141003188008, 0.018047314202159544]}}, {"type": "Feature", "properties": {"norad_id": 41747, "name": "INTELSAT 36 (IS-36)", "group": "intelsat", "lat": -0.03151860755587976, "lon": -123.18711301621012, "alt_km": 35785.9893261957, "timestamp": "2025-12-02T06:27:52.688946+00:00", "meta": {"OBJECT_NAME": "INTELSAT 36 (IS-36)", "OBJECT_ID": "2016-053A", "EPOCH": "2025-12-01T10:42:57.919680", "MEAN_MOTION": 1.0026918, "ECCENTRICITY": 0.00011725, "INCLINATION": 0.0111, "RA_OF_ASC_NODE": 338.3042, "ARG_OF_PERICENTER": 339.2761, "MEAN_ANOMALY": 342.2427, "EPHEMERIS_TYPE": 0, "CLASSIFICATION_TYPE": "U", "NORAD_CAT_ID": 41747, "ELEMENT_SET_NO": 999, "REV_AT_EPOCH": 3396, "BSTAR": 0, "MEAN_MOTION_DOT": -3e-08, "MEAN_MOTION_DDOT": 0}, "tle": {"line1": "1 41747U 16053A   25335.44650370 -.00000003  00000+0  00000+0 0  9997", "line2": "2 41747   0.0111 338.3042 0001172 339.2761 342.2427  1.00269180 33965"}}, "geometry": {"type": "Point", "coordinates": [-123.18711301621012, -0.03151860755587976]}}, {"type": "Feature", "properties": {"norad_id": 41945, "name": "INTELSAT 32E (IS-32E)", "group": "intelsat", "lat": 0.010965785613814701, "lon": 125.15297383381093, "alt_km": 35786.615061789475, "timestamp": "2025-12-02T06:27:52.688957+00:00", "meta": {"OBJECT_NAME": "INTELSAT 32E (IS-32E)", "OBJECT_ID": "2017-007B", "EPOCH": "2025-12-01T18:44:45.934944", "MEAN_MOTION": 1.00270018, "ECCENTRICITY": 7.5e-06, "INCLINATION": 0.0193, "RA_OF_ASC_NODE": 49.023, "ARG_OF_PERICENTER": 348.2563, "MEAN_ANOMALY": 271.6453, "EPHEMERIS_TYPE": 0, "CLASSIFICATION_TYPE": "U", "NORAD_CAT_ID": 41945, "ELEMENT_SET_NO": 999, "REV_AT_EPOCH": 3224, "BSTAR": 0, "MEAN_MOTION_DOT": -2.48e-06, "MEAN_MOTION_DDOT": 0}, "tle": {"line1": "1 41945U 17007B   25335.78108721 -.00000248  00000+0  00000+0 0  9993", "line2": "2 41945   0.0193  49.0230 0000075 348.2563 271.6453  1.00270018 32247"}}, "geometry": {"type": "Point", "coordinates": [125.15297383381093, 0.010965785613814701]}}, {"type": "Feature", "properties": {"norad_id": 42818, "name": "INTELSAT 35E (IS-35E)", "group": "intelsat", "lat": -0.004800884098914435, "lon": 133.83333488698662, "alt_km": 35790.31043379644, "timestamp": "2025-12-02T06:27:52.688969+00:00", "meta": {"OBJECT_NAME": "INTELSAT 35E (IS-35E)", "OBJECT_ID": "2017-041A", "EPOCH": "2025-12-01T10:13:30.740736", "MEAN_MOTION": 1.00275797, "ECCENTRICITY": 0.00023199, "INCLINATION": 0.0157, "RA_OF_ASC_NODE": 304.5375, "ARG_OF_PERICENTER": 311.9033, "MEAN_ANOMALY": 293.0092, "EPHEMERIS_TYPE": 0, "CLASSIFICATION_TYPE": "U", "NORAD_CAT_ID": 42818, "ELEMENT_SET_NO": 999, "REV_AT_EPOCH": 3083, "BSTAR": 0, "MEAN_MOTION_DOT": -2.16e-06, "MEAN_MOTION_DDOT": 0}, "tle": {"line1": "1 42818U 17041A   25335.42605024 -.00000216  00000+0  00000+0 0  9995", "line2": "2 42818   0.0157 304.5375 0002319 311.9033 293.0092  1.00275797 30837"}}, "geometry": {"type": "Point", "coordinates": [133.83333488698662, -0.004800884098914435]}}, {"type": "Feature", "properties": {"norad_id": 42950, "name": "INTELSAT 37E (IS-37E)", "group": "intelsat", "lat": -0.01884461941651261, "lon": 150.28783141291422, "alt_km": 35787.25560278257, "timestamp": "2025-12-02T06:27:52.688981+00:00", "meta": {"OBJECT_NAME": "INTELSAT 37E (IS-37E)", "OBJECT_ID": "2017-059A", "EPOCH": "2025-12-01T18:51:52.755264", "MEAN_MOTION": 1.00271082, "ECCENTRICITY": 0.0003375, "INCLINATION": 0.0134, "RA_OF_ASC_NODE": 288.8836, "ARG_OF_PERICENTER": 315.23, "MEAN_ANOMALY": 91.7669, "EPHEMERIS_TYPE": 0, "CLASSIFICATION_TYPE": "U", "NORAD_CAT_ID": 42950, "ELEMENT_SET_NO": 999, "REV_AT_EPOCH": 3008, "BSTAR": 0, "MEAN_MOTION_DOT": -1.19e-06, "MEAN_MOTION_DDOT": 0}, "tle": {"line1": "1 42950U 17059A   25335.78602726 -.00000119  00000+0  00000+0 0  9998", "line2": "2 42950   0.0134 288.8836 0003375 315.2300  91.7669  1.00271082 30085"}}, "geometry": {"type": "Point", "coordinates": [150.28783141291422, -0.01884461941651261]}}, {"type": "Feature", "properties": {"norad_id": 43632, "name": "AZERSPACE 2 (IS-38)", "group": "intelsat", "lat": -0.04272428645433452, "lon": -146.58070865978613, "alt_km": 35780.731463983946, "timestamp": "2025-12-02T06:27:52.688992+00:00", "meta": {"OBJECT_NAME": "AZERSPACE 2 (IS-38)", "OBJECT_ID": "2018-074A", "EPOCH": "2025-12-01T19:09:58.519872", "MEAN_MOTION": 1.00270936, "ECCENTRICITY": 0.0001559, "INCLINATION": 0.0203, "RA_OF_ASC_NODE": 315.6761, "ARG_OF_PERICENTER": 290.7871, "MEAN_ANOMALY": 157.0562, "EPHEMERIS_TYPE": 0, "CLASSIFICATION_TYPE": "U", "NORAD_CAT_ID": 43632, "ELEMENT_SET_NO": 999, "REV_AT_EPOCH": 2646, "BSTAR": 0, "MEAN_MOTION_DOT": 1.58e-06, "MEAN_MOTION_DDOT": 0}, "tle": {"line1": "1 43632U 18074A   25335.79859398  .00000158  00000+0  00000+0 0  9996", "line2": "2 43632   0.0203 315.6761 0001559 290.7871 157.0562  1.00270936 26460"}}, "geometry": {"type": "Point", "coordinates": [-146.58070865978613, -0.04272428645433452]}}, {"type": "Feature", "properties": {"norad_id": 43633, "name": "HORIZONS-3E", "group": "intelsat", "lat": 0.023173238598610726, "lon": -22.65228119696467, "alt_km": 35784.087685478116, "timestamp": "2025-12-02T06:27:52.689003+00:00", "meta": {"OBJECT_NAME": "HORIZONS-3E", "OBJECT_ID": "2018-074B", "EPOCH": "2025-12-01T16:19:48.160128", "MEAN_MOTION": 1.00268882, "ECCENTRICITY": 8.35e-05, "INCLINATION": 0.0286, "RA_OF_ASC_NODE": 210.1824, "ARG_OF_PERICENTER": 89.9206, "MEAN_ANOMALY": 184.6743, "EPHEMERIS_TYPE": 0, "CLASSIFICATION_TYPE": "U", "NORAD_CAT_ID": 43633, "ELEMENT_SET_NO": 999, "REV_AT_EPOCH": 2636, "BSTAR": 0, "MEAN_MOTION_DOT": -9e-08, "MEAN_MOTION_DDOT": 0}, "tle": {"line1": "1 43633U 18074B   25335.68041852 -.00000009  00000+0  00000+0 0  9999", "line2": "2 43633   0.0286 210.1824 0000835  89.9206 184.6743  1.00268882 26360"}}, "geometry": {"type": "Point", "coordinates": [-22.65228119696467, 0.023173238598610726]}}, {"type": "Feature", "properties": {"norad_id": 44333, "name": "AT&T T-16", "group": "intelsat", "lat": 0.016950020267837995, "lon": 67.47199385243364, "alt_km": 35786.304065831944, "timestamp": "2025-12-02T06:27:52.689015+00:00", "meta": {"OBJECT_NAME": "AT&T T-16", "OBJECT_ID": "2019-034A", "EPOCH": "2025-12-01T11:37:22.707840", "MEAN_MOTION": 1.00274591, "ECCENTRICITY": 7.558e-05, "INCLINATION": 0.0318, "RA_OF_ASC_NODE": 80.5038, "ARG_OF_PERICENTER": 95.0469, "MEAN_ANOMALY": 328.5514, "EPHEMERIS_TYPE": 0, "CLASSIFICATION_TYPE": "U", "NORAD_CAT_ID": 44333, "ELEMENT_SET_NO": 999, "REV_AT_EPOCH": 2365, "BSTAR": 0, "MEAN_MOTION_DOT": -9.4e-07, "MEAN_MOTION_DDOT": 0}, "tle": {"line1": "1 44333U 19034A   25335.48429060 -.00000094  00000+0  00000+0 0  9997", "line2": "2 44333   0.0318  80.5038 0000755  95.0469 328.5514  1.00274591 23658"}}, "geometry": {"type": "Point", "coordinates": [67.47199385243364, 0.016950020267837995]}}]}